AddressID,Street,City,State,PostalCode,Country
A1,8998 Chelsea Shoals,Anthonyview,Vermont,41000,United States
A2,0229 Jones Streets Apt. 183,Barnesmouth,Hawaii,49004,United States
A3,599 Nicole Drives Apt. 901,Scottchester,New York,80071,United States
A4,4381 Jordan Haven Suite 840,South Tracey,Arkansas,01508,United States
A5,3244 Wilson Parks,Thompsonfurt,Ohio,92732,United States
A6,851 Hensley Canyon,Smithland,Massachusetts,75966,United States
A7,664 Richard Islands Apt. 975,South Meganbury,Nevada,77685,United States
A8,164 Walker Tunnel Apt. 181,Port Michael,Washington,85100,United States
A9,12432 Kathleen Shoal,East Stephaniefort,New Jersey,99387,United States
A10,995 Hernandez Cliff Suite 744,West Williamport,New Jersey,59734,United States
A11,54119 Ford Plaza,South Reginashire,Tennessee,25173,United States
A12,782 Shannon Valleys Suite 182,East Jasminemouth,North Dakota,69018,United States
A13,5466 Shelton Center,Cameronville,Oklahoma,89417,United States
A14,4925 Brandi Divide Suite 462,West Andersonfurt,Delaware,09326,United States
A15,6892 Angela Light,North Jordanland,New Hampshire,95118,United States
A16,3776 April Pines Apt. 977,Colemouth,Wyoming,70356,United States
A17,49776 Blake Branch Suite 901,Lake Tyler,Mississippi,39645,United States
A18,75194 Joseph Plain Suite 940,Coleland,New Hampshire,88232,United States
A19,11663 Daniel Falls Apt. 151,New Haroldburgh,Missouri,25213,United States
A20,38076 Deleon Crossing,East Bethshire,Illinois,55833,United States
A21,22922 Robert Prairie,West Debra,Texas,90568,United States
A22,54715 Angela Hill,North Colleenshire,Michigan,29591,United States
A23,927 Stephanie Club,West Anthony,Montana,24428,United States
A24,80424 Curry Tunnel Apt. 381,Port Davidland,California,39128,United States
A25,64225 David Park Apt. 775,Port Carlashire,North Dakota,36491,United States
A26,98021 Tanner Tunnel Suite 414,North Savannah,South Carolina,92983,United States
A27,22299 Patrick Crossing,North Amberton,New Mexico,48199,United States
A28,6377 Kelsey Spurs Apt. 217,Johnsonland,Alabama,23300,United States
A29,8237 Katherine Club,East Williamtown,Connecticut,05799,United States
A30,8163 Gonzalez Ports,Johnview,Florida,79360,United States
A31,3010 Eric Lock,New Jonathan,Texas,80259,United States
A32,524 Johnson Mill Apt. 031,East Steven,North Carolina,96256,United States
A33,6828 Maxwell Locks Apt. 689,Briannamouth,Virginia,04620,United States
A34,66812 Michelle Burg,Port Mariahside,Maryland,94259,United States
A35,99697 Bruce Plain Apt. 448,New Christopher,Indiana,71853,United States
A36,12834 Jordan Hill Apt. 002,Hudsonchester,Colorado,06660,United States
A37,2121 Ethan Rapids,Davidchester,Kansas,25348,United States
A38,1919 Jennifer Road Apt. 373,North Cheryl,Georgia,87658,United States
A39,58226 Ashley Island Suite 385,Andreamouth,Louisiana,68245,United States
A40,49340 Roberts Street,North Coltonhaven,Nebraska,90755,United States
A41,224 David River,West Michelleburgh,Iowa,60344,United States
A42,862 Gregory Drive,North Julie,Arizona,16071,United States
A43,20363 Rodriguez Shoal Apt. 405,Colemanland,Utah,71976,United States
A44,5865 Victoria Station,North Sarahstad,Washington,73483,United States
A45,42954 Gonzalez Circles Apt. 288,New Lorrainemouth,Massachusetts,35721,United States
A46,4936 Benjamin Isle,New Jasmine,Idaho,62418,United States
A47,74271 Chelsea Lock Apt. 399,Sarahfort,South Dakota,88473,United States
A48,838 Brenda Points Suite 094,New Jessicaberg,West Virginia,29190,United States
A49,66608 Anderson Ridge,North Jamesside,Illinois,31270,United States
A50,3314 Nicole Cove Apt. 110,Sarahshire,Alaska,05841,United States
A51,9437 Crawford Mountains,East Samantha,Colorado,47621,United States
A52,3752 Rodriguez Gateway Suite 815,Lake Bradley,Florida,34198,United States
A53,7145 Melanie Expressway Apt. 246,South Emily,California,93712,United States
A54,825 Wells Hollow,Jamesborough,Pennsylvania,19564,United States
A55,6289 Amanda Course,Wheelerberg,Oregon,60937,United States
A56,42178 Nancy Forges,Whitehaven,Wisconsin,77392,United States
A57,914 Miller Plaza Suite 301,Paigeview,Kentucky,82513,United States
A58,5630 Hansen Mission,West Lisaville,Minnesota,11725,United States
A59,8823 Torres Heights,North Taylor,Rhode Island,50317,United States
A60,3191 Green Meadow,Lake Jeffreyton,Alabama,63850,United States
A61,7064 Davis Summit,Port Christina,New York,16432,United States
A62,50394 Young Bypass,Tiffanyfort,Michigan,91286,United States
A63,9682 Diana Stream Apt. 544,Port Lauraburgh,Arizona,27841,United States
A64,21457 Powell Landing,Michaelstad,South Carolina,45209,United States
A65,4833 Gregory Village,East Robertberg,Maine,38751,United States
A66,7239 Robbins Path Suite 125,Thompsonton,Georgia,72164,United States
A67,63512 Thompson Square,Port Justinville,Texas,28596,United States
A68,2953 Jackson Loaf,North Christinashire,Maryland,61078,United States
A69,7481 Gregory Drive Apt. 393,West Matthew,Kansas,95248,United States
A70,1632 Zachary Track,Ryanmouth,New Mexico,40573,United States
A71,5291 Kimberly Crescent,Port Daniel,Louisiana,83629,United States
A72,829 Gomez Mountains,New Jessicaport,Indiana,57314,United States
A73,93247 Heather Crossing Suite 458,Michaelchester,Nevada,20791,United States
A74,7126 Lisa Gateway,Murphyview,Virginia,36847,United States
A75,3582 Mcdonald Estate,Whitneyshire,Oklahoma,74593,United States
A76,12485 Harris Corner,South Brianburgh,Tennessee,58321,United States
A77,6415 Richard Mission,New Rachelton,Connecticut,21576,United States
A78,2793 Smith Vista,Williamsside,Mississippi,44138,United States
A79,64821 Bryant Plains,Scottville,North Dakota,67495,United States
A80,5817 Robert Squares Apt. 829,Hernandezville,Idaho,30962,United States